[
    {
        "Altitude(m)": 553652.2672582098,
        "Argument of Periapsis(deg)": 0.033114955553567506,
        "Eccentricity": 0.0,
        "Inclination(deg)": 53.0,
        "Latitude(deg)": 17.619776310016317,
        "Longitude(deg)": -107.75733742951726,
        "Mean Anomaly(deg)": 157.7307643378879,
        "RAAN(deg)": 189.95071684264008,
        "Satellite Name": "Starlink Shell 1 842",
        "Satellite Number": 842,
        "Semi-Major Axis(m)": 6931778.249405717,
        "Time(s)": 950
    },
    {
        "Altitude(m)": 553624.809634419,
        "Argument of Periapsis(deg)": 0.03346353403307874,
        "Eccentricity": 0.0,
        "Inclination(deg)": 53.0,
        "Latitude(deg)": 17.13013169698097,
        "Longitude(deg)": -107.38519606355503,
        "Mean Anomaly(deg)": 158.35759554144468,
        "RAAN(deg)": 189.9501980725626,
        "Satellite Name": "Starlink Shell 1 842",
        "Satellite Number": 842,
        "Semi-Major Axis(m)": 6931778.249405717,
        "Time(s)": 960
    },
    {
        "Altitude(m)": 553599.6555647067,
        "Argument of Periapsis(deg)": 0.03381211251258998,
        "Eccentricity": 0.0,
        "Inclination(deg)": 53.0,
        "Latitude(deg)": 16.639626159946108,
        "Longitude(deg)": -107.01521610247252,
        "Mean Anomaly(deg)": 158.98442674500131,
        "RAAN(deg)": 189.94967930248512,
        "Satellite Name": "Starlink Shell 1 842",
        "Satellite Number": 842,
        "Semi-Major Axis(m)": 6931778.249405717,
        "Time(s)": 970
    },
    {
        "Altitude(m)": 553576.8392986386,
        "Argument of Periapsis(deg)": 0.034160690992101214,
        "Eccentricity": 0.0,
        "Inclination(deg)": 53.0,
        "Latitude(deg)": 16.148290026076534,
        "Longitude(deg)": -106.64732508308458,
        "Mean Anomaly(deg)": 159.6112579485581,
        "RAAN(deg)": 189.9491605324077,
        "Satellite Name": "Starlink Shell 1 842",
        "Satellite Number": 842,
        "Semi-Major Axis(m)": 6931778.249405717,
        "Time(s)": 980
    },
    {
        "Altitude(m)": 553556.394049868,
        "Argument of Periapsis(deg)": 0.034509269471612446,
        "Eccentricity": 0.0,
        "Inclination(deg)": 53.0,
        "Latitude(deg)": 15.656153157549799,
        "Longitude(deg)": -106.28145091507334,
        "Mean Anomaly(deg)": 160.2380891521148,
        "RAAN(deg)": 189.94864176233023,
        "Satellite Name": "Starlink Shell 1 842",
        "Satellite Number": 842,
        "Semi-Major Axis(m)": 6931778.249405717,
        "Time(s)": 990
    }
]